CCSDS_OMM_VERS = 2.0
CREATION_DATE  = 
ORIGINATOR     = 

OBJECT_NAME    = STARLINK-36265
OBJECT_ID      = 2025-304S
CENTER_NAME    = EARTH
REF_FRAME      = TEME
TIME_SYSTEM    = UTC
MEAN_ELEMENT_THEORY = SGP/SGP4

EPOCH          = 2026-01-01T09:51:59.638752
MEAN_MOTION    = 15.68401747
ECCENTRICITY   = .0003709
INCLINATION    = 70.0008
RA_OF_ASC_NODE = 351.8425
ARG_OF_PERICENTER = 294.9910
MEAN_ANOMALY   = 65.0900

EPHEMERIS_TYPE = 0
CLASSIFICATION_TYPE = U
NORAD_CAT_ID   = 67208
ELEMENT_SET_NO = 999
REV_AT_EPOCH   = 361
BSTAR          = -.8234866E-2
MEAN_MOTION_DOT = -.841855E-2
MEAN_MOTION_DDOT = 0

CCSDS_OMM_VERS = 2.0
CREATION_DATE  = 
ORIGINATOR     = 

OBJECT_NAME    = STARLINK-36226
OBJECT_ID      = 2025-304T
CENTER_NAME    = EARTH
REF_FRAME      = TEME
TIME_SYSTEM    = UTC
MEAN_ELEMENT_THEORY = SGP/SGP4

EPOCH          = 2026-01-01T09:51:30.214368
MEAN_MOTION    = 15.68582480
ECCENTRICITY   = .00031529
INCLINATION    = 70.0010
RA_OF_ASC_NODE = 351.8442
ARG_OF_PERICENTER = 275.3591
MEAN_ANOMALY   = 84.7244

EPHEMERIS_TYPE = 0
CLASSIFICATION_TYPE = U
NORAD_CAT_ID   = 67209
ELEMENT_SET_NO = 999
REV_AT_EPOCH   = 361
BSTAR          = -.52973682E-2
MEAN_MOTION_DOT = -.563982E-2
MEAN_MOTION_DDOT = 0

CCSDS_OMM_VERS = 2.0
CREATION_DATE  = 
ORIGINATOR     = 

OBJECT_NAME    = STARLINK-36173
OBJECT_ID      = 2025-304U
CENTER_NAME    = EARTH
REF_FRAME      = TEME
TIME_SYSTEM    = UTC
MEAN_ELEMENT_THEORY = SGP/SGP4

EPOCH          = 2026-01-01T08:19:11.101728
MEAN_MOTION    = 15.68955964
ECCENTRICITY   = .00068606
INCLINATION    = 69.9986
RA_OF_ASC_NODE = 352.0182
ARG_OF_PERICENTER = 328.8677
MEAN_ANOMALY   = 31.2111

EPHEMERIS_TYPE = 0
CLASSIFICATION_TYPE = U
NORAD_CAT_ID   = 67210
ELEMENT_SET_NO = 999
REV_AT_EPOCH   = 360
BSTAR          = -.19270823E-2
MEAN_MOTION_DOT = -.217467E-2
MEAN_MOTION_DDOT = 0

CCSDS_OMM_VERS = 2.0
CREATION_DATE  = 
ORIGINATOR     = 

OBJECT_NAME    = STARLINK-36280
OBJECT_ID      = 2025-304V
CENTER_NAME    = EARTH
REF_FRAME      = TEME
TIME_SYSTEM    = UTC
MEAN_ELEMENT_THEORY = SGP/SGP4

EPOCH          = 2026-01-01T08:18:39.956256
MEAN_MOTION    = 15.68728050
ECCENTRICITY   = .0004053
INCLINATION    = 69.9991
RA_OF_ASC_NODE = 352.0155
ARG_OF_PERICENTER = 257.8345
MEAN_ANOMALY   = 102.2397

EPHEMERIS_TYPE = 0
CLASSIFICATION_TYPE = U
NORAD_CAT_ID   = 67211
ELEMENT_SET_NO = 999
REV_AT_EPOCH   = 360
BSTAR          = -.82759299E-2
MEAN_MOTION_DOT = -.85617E-2
MEAN_MOTION_DDOT = 0

CCSDS_OMM_VERS = 2.0
CREATION_DATE  = 
ORIGINATOR     = 

OBJECT_NAME    = STARLINK-36213
OBJECT_ID      = 2025-304W
CENTER_NAME    = EARTH
REF_FRAME      = TEME
TIME_SYSTEM    = UTC
MEAN_ELEMENT_THEORY = SGP/SGP4

EPOCH          = 2026-01-01T08:18:10.728864
MEAN_MOTION    = 15.68708399
ECCENTRICITY   = .00039828
INCLINATION    = 69.9991
RA_OF_ASC_NODE = 352.0142
ARG_OF_PERICENTER = 248.9764
MEAN_ANOMALY   = 111.1005

EPHEMERIS_TYPE = 0
CLASSIFICATION_TYPE = U
NORAD_CAT_ID   = 67212
ELEMENT_SET_NO = 999
REV_AT_EPOCH   = 360
BSTAR          = -.82966303E-2
MEAN_MOTION_DOT = -.857449E-2
MEAN_MOTION_DDOT = 0

CCSDS_OMM_VERS = 2.0
CREATION_DATE  = 
ORIGINATOR     = 

OBJECT_NAME    = STARLINK-36199
OBJECT_ID      = 2025-304X
CENTER_NAME    = EARTH
REF_FRAME      = TEME
TIME_SYSTEM    = UTC
MEAN_ELEMENT_THEORY = SGP/SGP4

EPOCH          = 2026-01-01T08:17:31.265664
MEAN_MOTION    = 15.69680404
ECCENTRICITY   = .00036696
INCLINATION    = 69.9985
RA_OF_ASC_NODE = 352.0132
ARG_OF_PERICENTER = 275.7552
MEAN_ANOMALY   = 84.3225

EPHEMERIS_TYPE = 0
CLASSIFICATION_TYPE = U
NORAD_CAT_ID   = 67213
ELEMENT_SET_NO = 999
REV_AT_EPOCH   = 360
BSTAR          = .16930762E-2
MEAN_MOTION_DOT = .206373E-2
MEAN_MOTION_DDOT = 0

CCSDS_OMM_VERS = 2.0
CREATION_DATE  = 
ORIGINATOR     = 

OBJECT_NAME    = STARLINK-36203
OBJECT_ID      = 2025-304Y
CENTER_NAME    = EARTH
REF_FRAME      = TEME
TIME_SYSTEM    = UTC
MEAN_ELEMENT_THEORY = SGP/SGP4

EPOCH          = 2026-01-01T08:17:12.178176
MEAN_MOTION    = 15.68708351
ECCENTRICITY   = .00039354
INCLINATION    = 69.9988
RA_OF_ASC_NODE = 352.0119
ARG_OF_PERICENTER = 264.2322
MEAN_ANOMALY   = 95.8425

EPHEMERIS_TYPE = 0
CLASSIFICATION_TYPE = U
NORAD_CAT_ID   = 67214
ELEMENT_SET_NO = 999
REV_AT_EPOCH   = 360
BSTAR          = -.85121688E-2
MEAN_MOTION_DOT = -.87754E-2
MEAN_MOTION_DDOT = 0

CCSDS_OMM_VERS = 2.0
CREATION_DATE  = 
ORIGINATOR     = 

OBJECT_NAME    = STARLINK-36221
OBJECT_ID      = 2025-304Z
CENTER_NAME    = EARTH
REF_FRAME      = TEME
TIME_SYSTEM    = UTC
MEAN_ELEMENT_THEORY = SGP/SGP4

EPOCH          = 2026-01-01T08:16:42.603456
MEAN_MOTION    = 15.68907350
ECCENTRICITY   = .000468
INCLINATION    = 69.9986
RA_OF_ASC_NODE = 352.0107
ARG_OF_PERICENTER = 258.7778
MEAN_ANOMALY   = 101.2891

EPHEMERIS_TYPE = 0
CLASSIFICATION_TYPE = U
NORAD_CAT_ID   = 67215
ELEMENT_SET_NO = 999
REV_AT_EPOCH   = 360
BSTAR          = -.46967518E-2
MEAN_MOTION_DOT = -.510324E-2
MEAN_MOTION_DDOT = 0

CCSDS_OMM_VERS = 2.0
CREATION_DATE  = 
ORIGINATOR     = 

OBJECT_NAME    = STARLINK-36212
OBJECT_ID      = 2025-304AA
CENTER_NAME    = EARTH
REF_FRAME      = TEME
TIME_SYSTEM    = UTC
MEAN_ELEMENT_THEORY = SGP/SGP4

EPOCH          = 2026-01-01T09:48:05.730624
MEAN_MOTION    = 15.68423948
ECCENTRICITY   = .0003187
INCLINATION    = 69.9990
RA_OF_ASC_NODE = 351.8305
ARG_OF_PERICENTER = 279.3811
MEAN_ANOMALY   = 80.7024

EPHEMERIS_TYPE = 0
CLASSIFICATION_TYPE = U
NORAD_CAT_ID   = 67216
ELEMENT_SET_NO = 999
REV_AT_EPOCH   = 361
BSTAR          = -.77249567E-2
MEAN_MOTION_DOT = -.794794E-2
MEAN_MOTION_DDOT = 0

CCSDS_OMM_VERS = 2.0
CREATION_DATE  = 
ORIGINATOR     = 

OBJECT_NAME    = STARLINK-36216
OBJECT_ID      = 2025-304AB
CENTER_NAME    = EARTH
REF_FRAME      = TEME
TIME_SYSTEM    = UTC
MEAN_ELEMENT_THEORY = SGP/SGP4

EPOCH          = 2026-01-01T09:47:36.482496
MEAN_MOTION    = 15.68461015
ECCENTRICITY   = .00036777
INCLINATION    = 69.9989
RA_OF_ASC_NODE = 351.8291
ARG_OF_PERICENTER = 298.3203
MEAN_ANOMALY   = 61.7621

EPHEMERIS_TYPE = 0
CLASSIFICATION_TYPE = U
NORAD_CAT_ID   = 67217
ELEMENT_SET_NO = 999
REV_AT_EPOCH   = 361
BSTAR          = -.70575404E-2
MEAN_MOTION_DOT = -.732858E-2
MEAN_MOTION_DDOT = 0

CCSDS_OMM_VERS = 2.0
CREATION_DATE  = 
ORIGINATOR     = 

OBJECT_NAME    = STARLINK-36211
OBJECT_ID      = 2025-304AC
CENTER_NAME    = EARTH
REF_FRAME      = TEME
TIME_SYSTEM    = UTC
MEAN_ELEMENT_THEORY = SGP/SGP4

EPOCH          = 2026-01-01T08:15:14.567904
MEAN_MOTION    = 15.68742815
ECCENTRICITY   = .0003704
INCLINATION    = 70.0002
RA_OF_ASC_NODE = 352.0079
ARG_OF_PERICENTER = 254.1570
MEAN_ANOMALY   = 105.9217

EPHEMERIS_TYPE = 0
CLASSIFICATION_TYPE = U
NORAD_CAT_ID   = 67218
ELEMENT_SET_NO = 999
REV_AT_EPOCH   = 357
BSTAR          = -.83109314E-2
MEAN_MOTION_DOT = -.85978E-2
MEAN_MOTION_DDOT = 0

CCSDS_OMM_VERS = 2.0
CREATION_DATE  = 
ORIGINATOR     = 

OBJECT_NAME    = DISKSAT A
OBJECT_ID      = 2025-305A
CENTER_NAME    = EARTH
REF_FRAME      = TEME
TIME_SYSTEM    = UTC
MEAN_ELEMENT_THEORY = SGP/SGP4

EPOCH          = 2025-12-20T09:08:30.149664
MEAN_MOTION    = 15.05762698
ECCENTRICITY   = .0003912
INCLINATION    = 45.0057
RA_OF_ASC_NODE = 310.0654
ARG_OF_PERICENTER = 276.1097
MEAN_ANOMALY   = 83.9332

EPHEMERIS_TYPE = 0
CLASSIFICATION_TYPE = U
NORAD_CAT_ID   = 67219
ELEMENT_SET_NO = 999
REV_AT_EPOCH   = 33
BSTAR          = .50887E-4
MEAN_MOTION_DOT = .51E-5
MEAN_MOTION_DDOT = 0

