STARLINK-36265          
1 67208U 25304S   26001.41110693 -.00841855  00000+0 -82349-2 0  9991
2 67208  70.0008 351.8425 0003709 294.9910  65.0900 15.68401747  3614
STARLINK-36226          
1 67209U 25304T   26001.41076637 -.00563982  00000+0 -52974-2 0  9994
2 67209  70.0010 351.8442 0003152 275.3591  84.7244 15.68582480  3610
STARLINK-36173          
1 67210U 25304U   26001.34665627 -.00217467  00000+0 -19271-2 0  9998
2 67210  69.9986 352.0182 0006860 328.8677  31.2111 15.68955964  3603
STARLINK-36280          
1 67211U 25304V   26001.34629579 -.00856170  00000+0 -82759-2 0  9996
2 67211  69.9991 352.0155 0004053 257.8345 102.2397 15.68728050  3604
STARLINK-36213          
1 67212U 25304W   26001.34595751 -.00857449  00000+0 -82966-2 0  9991
2 67212  69.9991 352.0142 0003982 248.9764 111.1005 15.68708399  3606
STARLINK-36199          
1 67213U 25304X   26001.34550076  .00206373  00000+0  16931-2 0  9994
2 67213  69.9985 352.0132 0003669 275.7552  84.3225 15.69680404  3606
STARLINK-36203          
1 67214U 25304Y   26001.34527984 -.00877540  00000+0 -85122-2 0  9997
2 67214  69.9988 352.0119 0003935 264.2322  95.8425 15.68708351  3609
STARLINK-36221          
1 67215U 25304Z   26001.34493754 -.00510324  00000+0 -46968-2 0  9994
2 67215  69.9986 352.0107 0004680 258.7778 101.2891 15.68907350  3605
STARLINK-36212          
1 67216U 25304AA  26001.40839966 -.00794794  00000+0 -77250-2 0  9994
2 67216  69.9990 351.8305 0003187 279.3811  80.7024 15.68423948  3612
STARLINK-36216          
1 67217U 25304AB  26001.40806114 -.00732858  00000+0 -70575-2 0  9990
2 67217  69.9989 351.8291 0003677 298.3203  61.7621 15.68461015  3614
STARLINK-36211          
1 67218U 25304AC  26001.34391861 -.00859780  00000+0 -83109-2 0  9993
2 67218  70.0002 352.0079 0003704 254.1570 105.9217 15.68742815  3576
DISKSAT A               
1 67219U 25305A   25354.38090451  .00000510  00000+0  50887-4 0  9996
2 67219  45.0057 310.0654 0003912 276.1097  83.9332 15.05762698   337
